{
  "type": "FeatureCollection",
  "features": [
    {
      "type": "Feature",
      "properties": {
        "norad_id": 34056,
        "name": "COSMOS 2251 DEB",
        "group": "cosmos-2251-debris",
        "lat": -69.00945486119164,
        "lon": 22.106675980703812,
        "alt_km": 917.1723226291251,
        "timestamp": "2025-12-16T03:53:27.448881+00:00",
        "meta_object_name": "COSMOS 2251 DEB",
        "meta_object_id": "1993-036JT",
        "meta_epoch": "2025-12-15T08:16:49.707264",
        "meta_mean_motion": 14.20567852,
        "meta_eccentricity": 0.01239833,
        "meta_inclination": 74.0595,
        "meta_ra_of_asc_node": 71.7187,
        "meta_arg_of_pericenter": 118.8635,
        "meta_mean_anomaly": 307.6145,
        "meta_ephemeris_type": 0,
        "meta_classification_type": "U",
        "meta_norad_cat_id": 34056,
        "meta_element_set_no": 999,
        "meta_rev_at_epoch": 86448,
        "meta_bstar": 0.00072601988,
        "meta_mean_motion_dot": 1.663e-05,
        "meta_mean_motion_ddot": 0,
        "tle_line1": "1 34056U 93036JT  25349.34501976  .00001663  00000+0  72602-3 0  9992",
        "tle_line2": "2 34056  74.0595  71.7187 0123983 118.8635 307.6145 14.20567852864485"
      },
      "geometry": {
        "type": "Point",
        "coordinates": [
          22.106675980703812,
          -69.00945486119164
        ]
      }
    },
    {
      "type": "Feature",
      "properties": {
        "norad_id": 34058,
        "name": "COSMOS 2251 DEB",
        "group": "cosmos-2251-debris",
        "lat": -0.2861504925787826,
        "lon": 172.48302800952996,
        "alt_km": 1325.8743967160117,
        "timestamp": "2025-12-16T03:53:27.448892+00:00",
        "meta_object_name": "COSMOS 2251 DEB",
        "meta_object_id": "1993-036JV",
        "meta_epoch": "2025-12-15T05:27:52.155072",
        "meta_mean_motion": 13.56079837,
        "meta_eccentricity": 0.03778401,
        "meta_inclination": 73.9314,
        "meta_ra_of_asc_node": 174.0798,
        "meta_arg_of_pericenter": 168.8455,
        "meta_mean_anomaly": 311.8177,
        "meta_ephemeris_type": 0,
        "meta_classification_type": "U",
        "meta_norad_cat_id": 34058,
        "meta_element_set_no": 999,
        "meta_rev_at_epoch": 83176,
        "meta_bstar": 0.00073497409,
        "meta_mean_motion_dot": 7.95e-06,
        "meta_mean_motion_ddot": 0,
        "tle_line1": "1 34058U 93036JV  25349.22768698  .00000795  00000+0  73497-3 0  9995",
        "tle_line2": "2 34058  73.9314 174.0798 0377840 168.8455 311.8177 13.56079837831763"
      },
      "geometry": {
        "type": "Point",
        "coordinates": [
          172.48302800952996,
          -0.2861504925787826
        ]
      }
    },
    {
      "type": "Feature",
      "properties": {
        "norad_id": 34059,
        "name": "COSMOS 2251 DEB",
        "group": "cosmos-2251-debris",
        "lat": -24.885837954965698,
        "lon": 172.19053290276608,
        "alt_km": 718.3229728406968,
        "timestamp": "2025-12-16T03:53:27.448902+00:00",
        "meta_object_name": "COSMOS 2251 DEB",
        "meta_object_id": "1993-036JW",
        "meta_epoch": "2025-12-15T07:21:15.469056",
        "meta_mean_motion": 14.529637,
        "meta_eccentricity": 0.00185647,
        "meta_inclination": 74.0372,
        "meta_ra_of_asc_node": 181.4344,
        "meta_arg_of_pericenter": 258.51,
        "meta_mean_anomaly": 281.4027,
        "meta_ephemeris_type": 0,
        "meta_classification_type": "U",
        "meta_norad_cat_id": 34059,
        "meta_element_set_no": 999,
        "meta_rev_at_epoch": 88496,
        "meta_bstar": 0.00055479516,
        "meta_mean_motion_dot": 2.265e-05,
        "meta_mean_motion_ddot": 0,
        "tle_line1": "1 34059U 93036JW  25349.30642904  .00002265  00000+0  55480-3 0  9992",
        "tle_line2": "2 34059  74.0372 181.4344 0018564 258.5100 281.4027 14.52963700884962"
      },
      "geometry": {
        "type": "Point",
        "coordinates": [
          172.19053290276608,
          -24.885837954965698
        ]
      }
    },
    {
      "type": "Feature",
      "properties": {
        "norad_id": 34061,
        "name": "COSMOS 2251 DEB",
        "group": "cosmos-2251-debris",
        "lat": 13.518384154972885,
        "lon": 73.1184158442535,
        "alt_km": 772.3594461041193,
        "timestamp": "2025-12-16T03:53:27.448912+00:00",
        "meta_object_name": "COSMOS 2251 DEB",
        "meta_object_id": "1993-036JY",
        "meta_epoch": "2025-12-15T04:28:57.597600",
        "meta_mean_motion": 14.40362683,
        "meta_eccentricity": 0.00206218,
        "meta_inclination": 74.0391,
        "meta_ra_of_asc_node": 258.866,
        "meta_arg_of_pericenter": 335.367,
        "meta_mean_anomaly": 175.0773,
        "meta_ephemeris_type": 0,
        "meta_classification_type": "U",
        "meta_norad_cat_id": 34061,
        "meta_element_set_no": 999,
        "meta_rev_at_epoch": 88215,
        "meta_bstar": 0.00033654926,
        "meta_mean_motion_dot": 1.044e-05,
        "meta_mean_motion_ddot": 0,
        "tle_line1": "1 34061U 93036JY  25349.18677775  .00001044  00000+0  33655-3 0  9999",
        "tle_line2": "2 34061  74.0391 258.8660 0020621 335.3670 175.0773 14.40362683882154"
      },
      "geometry": {
        "type": "Point",
        "coordinates": [
          73.1184158442535,
          13.518384154972885
        ]
      }
    },
    {
      "type": "Feature",
      "properties": {
        "norad_id": 34062,
        "name": "COSMOS 2251 DEB",
        "group": "cosmos-2251-debris",
        "lat": 36.73021373294061,
        "lon": 143.6454598263737,
        "alt_km": 681.5417404801283,
        "timestamp": "2025-12-16T03:53:27.448922+00:00",
        "meta_object_name": "COSMOS 2251 DEB",
        "meta_object_id": "1993-036JZ",
        "meta_epoch": "2025-12-14T19:48:36.935136",
        "meta_mean_motion": 14.78766717,
        "meta_eccentricity": 0.00742705,
        "meta_inclination": 74.0275,
        "meta_ra_of_asc_node": 133.9331,
        "meta_arg_of_pericenter": 212.6279,
        "meta_mean_anomaly": 272.9303,
        "meta_ephemeris_type": 0,
        "meta_classification_type": "U",
        "meta_norad_cat_id": 34062,
        "meta_element_set_no": 999,
        "meta_rev_at_epoch": 88626,
        "meta_bstar": 0.0024903732,
        "meta_mean_motion_dot": 0.00019187,
        "meta_mean_motion_ddot": 0,
        "tle_line1": "1 34062U 93036JZ  25348.82542749  .00019187  00000+0  24904-2 0  9995",
        "tle_line2": "2 34062  74.0275 133.9331 0074270 212.6279 272.9303 14.78766717886264"
      },
      "geometry": {
        "type": "Point",
        "coordinates": [
          143.6454598263737,
          36.73021373294061
        ]
      }
    },
    {
      "type": "Feature",
      "properties": {
        "norad_id": 34064,
        "name": "COSMOS 2251 DEB",
        "group": "cosmos-2251-debris",
        "lat": 15.423463719790584,
        "lon": 79.98878968895325,
        "alt_km": 766.5520432925086,
        "timestamp": "2025-12-16T03:53:27.448933+00:00",
        "meta_object_name": "COSMOS 2251 DEB",
        "meta_object_id": "1993-036KB",
        "meta_epoch": "2025-12-15T06:13:06.383424",
        "meta_mean_motion": 14.42348206,
        "meta_eccentricity": 0.00222013,
        "meta_inclination": 74.0329,
        "meta_ra_of_asc_node": 266.1938,
        "meta_arg_of_pericenter": 332.3768,
        "meta_mean_anomaly": 184.5088,
        "meta_ephemeris_type": 0,
        "meta_classification_type": "U",
        "meta_norad_cat_id": 34064,
        "meta_element_set_no": 999,
        "meta_rev_at_epoch": 88178,
        "meta_bstar": 0.00045710322,
        "meta_mean_motion_dot": 1.488e-05,
        "meta_mean_motion_ddot": 0,
        "tle_line1": "1 34064U 93036KB  25349.25910166  .00001488  00000+0  45710-3 0  9991",
        "tle_line2": "2 34064  74.0329 266.1938 0022201 332.3768 184.5088 14.42348206881788"
      },
      "geometry": {
        "type": "Point",
        "coordinates": [
          79.98878968895325,
          15.423463719790584
        ]
      }
    },
    {
      "type": "Feature",
      "properties": {
        "norad_id": 34065,
        "name": "COSMOS 2251 DEB",
        "group": "cosmos-2251-debris",
        "lat": 52.28241909295358,
        "lon": 50.093419356034545,
        "alt_km": 768.110987501389,
        "timestamp": "2025-12-16T03:53:27.448943+00:00",
        "meta_object_name": "COSMOS 2251 DEB",
        "meta_object_id": "1993-036KC",
        "meta_epoch": "2025-12-15T04:38:46.486176",
        "meta_mean_motion": 14.38065302,
        "meta_eccentricity": 0.00164814,
        "meta_inclination": 74.0356,
        "meta_ra_of_asc_node": 253.601,
        "meta_arg_of_pericenter": 350.6911,
        "meta_mean_anomaly": 161.6568,
        "meta_ephemeris_type": 0,
        "meta_classification_type": "U",
        "meta_norad_cat_id": 34065,
        "meta_element_set_no": 999,
        "meta_rev_at_epoch": 88240,
        "meta_bstar": 0.00016788387,
        "meta_mean_motion_dot": 4.83e-06,
        "meta_mean_motion_ddot": 0,
        "tle_line1": "1 34065U 93036KC  25349.19359359  .00000483  00000+0  16788-3 0  9993",
        "tle_line2": "2 34065  74.0356 253.6010 0016481 350.6911 161.6568 14.38065302882404"
      },
      "geometry": {
        "type": "Point",
        "coordinates": [
          50.093419356034545,
          52.28241909295358
        ]
      }
    }
  ]
}